{"fetched_at":"2026-07-12T05:52:33.815Z","source":"https://celestrak.org/NORAD/elements/gp.php?GROUP=oneweb&FORMAT=JSON","constellation":"oneweb","records":[{"OBJECT_NAME":"ONEWEB-0520","OBJECT_ID":"2022-138AB","EPOCH":"2026-07-11T20:18:24.874272","CLASSIFICATION_TYPE":"U","MEAN_MOTION":13.19726292,"ECCENTRICITY":0.000193,"INCLINATION":87.9186,"RA_OF_ASC_NODE":300.0591,"ARG_OF_PERICENTER":104.0987,"MEAN_ANOMALY":256.036,"EPHEMERIS_TYPE":0,"NORAD_CAT_ID":54138,"ELEMENT_SET_NO":999,"REV_AT_EPOCH":18007,"BSTAR":-0.00019161,"MEAN_MOTION_DOT":-6.4e-7,"MEAN_MOTION_DDOT":0},{"OBJECT_NAME":"ONEWEB-0521","OBJECT_ID":"2022-138AC","EPOCH":"2026-07-11T19:16:58.948320","CLASSIFICATION_TYPE":"U","MEAN_MOTION":13.19726386,"ECCENTRICITY":0.0001867,"INCLINATION":87.9194,"RA_OF_ASC_NODE":300.0546,"ARG_OF_PERICENTER":95.1727,"MEAN_ANOMALY":264.9618,"EPHEMERIS_TYPE":0,"NORAD_CAT_ID":54139,"ELEMENT_SET_NO":999,"REV_AT_EPOCH":18001,"BSTAR":-0.000059711,"MEAN_MOTION_DOT":-1.1e-7,"MEAN_MOTION_DDOT":0},{"OBJECT_NAME":"ONEWEB-0522","OBJECT_ID":"2022-138AD","EPOCH":"2026-07-11T18:47:24.529056","CLASSIFICATION_TYPE":"U","MEAN_MOTION":13.19738819,"ECCENTRICITY":0.0002022,"INCLINATION":87.9194,"RA_OF_ASC_NODE":300.0613,"ARG_OF_PERICENTER":106.2897,"MEAN_ANOMALY":253.8458,"EPHEMERIS_TYPE":0,"NORAD_CAT_ID":54140,"ELEMENT_SET_NO":999,"REV_AT_EPOCH":18005,"BSTAR":0.0034023,"MEAN_MOTION_DOT":0.00001376,"MEAN_MOTION_DDOT":0},{"OBJECT_NAME":"ONEWEB-0523","OBJECT_ID":"2022-138AE","EPOCH":"2026-07-11T17:25:28.985952","CLASSIFICATION_TYPE":"U","MEAN_MOTION":13.20772283,"ECCENTRICITY":0.0002398,"INCLINATION":87.9194,"RA_OF_ASC_NODE":269.5511,"ARG_OF_PERICENTER":80.4264,"MEAN_ANOMALY":279.714,"EPHEMERIS_TYPE":0,"NORAD_CAT_ID":54141,"ELEMENT_SET_NO":999,"REV_AT_EPOCH":18254,"BSTAR":-0.000091599,"MEAN_MOTION_DOT":-2.4e-7,"MEAN_MOTION_DDOT":0},{"OBJECT_NAME":"ONEWEB-0524","OBJECT_ID":"2022-138AF","EPOCH":"2026-07-11T17:10:56.663904","CLASSIFICATION_TYPE":"U","MEAN_MOTION":13.20772717,"ECCENTRICITY":0.0002942,"INCLINATION":87.9193,"RA_OF_ASC_NODE":269.55,"ARG_OF_PERICENTER":92.9856,"MEAN_ANOMALY":267.1614,"EPHEMERIS_TYPE":0,"NORAD_CAT_ID":54142,"ELEMENT_SET_NO":999,"REV_AT_EPOCH":18254,"BSTAR":0.000049118,"MEAN_MOTION_DOT":3.3e-7,"MEAN_MOTION_DDOT":0},{"OBJECT_NAME":"ONEWEB-0525","OBJECT_ID":"2022-138AG","EPOCH":"2026-07-11T19:14:42.105408","CLASSIFICATION_TYPE":"U","MEAN_MOTION":13.19726048,"ECCENTRICITY":0.0002188,"INCLINATION":87.9191,"RA_OF_ASC_NODE":300.0642,"ARG_OF_PERICENTER":111.3801,"MEAN_ANOMALY":248.7565,"EPHEMERIS_TYPE":0,"NORAD_CAT_ID":54143,"ELEMENT_SET_NO":999,"REV_AT_EPOCH":18007,"BSTAR":-0.00018034,"MEAN_MOTION_DOT":-5.9e-7,"MEAN_MOTION_DDOT":0},{"OBJECT_NAME":"ONEWEB-0526","OBJECT_ID":"2022-138AH","EPOCH":"2026-07-11T20:02:28.256064","CLASSIFICATION_TYPE":"U","MEAN_MOTION":13.19723946,"ECCENTRICITY":0.0002119,"INCLINATION":87.9193,"RA_OF_ASC_NODE":300.0587,"ARG_OF_PERICENTER":104.1406,"MEAN_ANOMALY":255.9962,"EPHEMERIS_TYPE":0,"NORAD_CAT_ID":54144,"ELEMENT_SET_NO":999,"REV_AT_EPOCH":18005,"BSTAR":0.000043222,"MEAN_MOTION_DOT":3e-7,"MEAN_MOTION_DDOT":0},{"OBJECT_NAME":"ONEWEB-0529","OBJECT_ID":"2022-138AJ","EPOCH":"2026-07-11T20:07:02.578656","CLASSIFICATION_TYPE":"U","MEAN_MOTION":13.19725946,"ECCENTRICITY":0.0001961,"INCLINATION":87.918,"RA_OF_ASC_NODE":300.0665,"ARG_OF_PERICENTER":105.9444,"MEAN_ANOMALY":254.1905,"EPHEMERIS_TYPE":0,"NORAD_CAT_ID":54145,"ELEMENT_SET_NO":999,"REV_AT_EPOCH":18007,"BSTAR":-0.00013764,"MEAN_MOTION_DOT":-4.2e-7,"MEAN_MOTION_DDOT":0},{"OBJECT_NAME":"ONEWEB-0531","OBJECT_ID":"2022-138AK","EPOCH":"2026-07-11T18:40:37.827840","CLASSIFICATION_TYPE":"U","MEAN_MOTION":13.20773803,"ECCENTRICITY":0.0002716,"INCLINATION":87.9186,"RA_OF_ASC_NODE":269.5349,"ARG_OF_PERICENTER":82.709,"MEAN_ANOMALY":277.4352,"EPHEMERIS_TYPE":0,"NORAD_CAT_ID":54146,"ELEMENT_SET_NO":999,"REV_AT_EPOCH":18255,"BSTAR":0.00035106,"MEAN_MOTION_DOT":0.00000156,"MEAN_MOTION_DDOT":0},{"OBJECT_NAME":"ONEWEB-0535","OBJECT_ID":"2022-138AL","EPOCH":"2026-07-11T19:05:36.492000","CLASSIFICATION_TYPE":"U","MEAN_MOTION":13.19726559,"ECCENTRICITY":0.0002031,"INCLINATION":87.9194,"RA_OF_ASC_NODE":300.0598,"ARG_OF_PERICENTER":91.4118,"MEAN_ANOMALY":268.7247,"EPHEMERIS_TYPE":0,"NORAD_CAT_ID":54147,"ELEMENT_SET_NO":999,"REV_AT_EPOCH":18008,"BSTAR":0.0000971,"MEAN_MOTION_DOT":5.2e-7,"MEAN_MOTION_DDOT":0},{"OBJECT_NAME":"ONEWEB-0536","OBJECT_ID":"2022-138AM","EPOCH":"2026-07-11T18:21:14.297184","CLASSIFICATION_TYPE":"U","MEAN_MOTION":13.20772993,"ECCENTRICITY":0.0002786,"INCLINATION":87.9174,"RA_OF_ASC_NODE":269.5576,"ARG_OF_PERICENTER":85.8308,"MEAN_ANOMALY":274.3143,"EPHEMERIS_TYPE":0,"NORAD_CAT_ID":54148,"ELEMENT_SET_NO":999,"REV_AT_EPOCH":18254,"BSTAR":0.000091007,"MEAN_MOTION_DOT":5e-7,"MEAN_MOTION_DDOT":0},{"OBJECT_NAME":"ONEWEB-0527","OBJECT_ID":"2022-166A","EPOCH":"2026-07-11T15:02:16.931040","CLASSIFICATION_TYPE":"U","MEAN_MOTION":13.21827066,"ECCENTRICITY":0.00021236,"INCLINATION":87.9234,"RA_OF_ASC_NODE":239.1335,"ARG_OF_PERICENTER":97.3655,"MEAN_ANOMALY":262.772,"EPHEMERIS_TYPE":0,"NORAD_CAT_ID":54642,"ELEMENT_SET_NO":999,"REV_AT_EPOCH":17476,"BSTAR":0.000096095313,"MEAN_MOTION_DOT":5.3e-7,"MEAN_MOTION_DDOT":0},{"OBJECT_NAME":"ONEWEB-0528","OBJECT_ID":"2022-166B","EPOCH":"2026-07-11T15:03:29.349792","CLASSIFICATION_TYPE":"U","MEAN_MOTION":13.21826132,"ECCENTRICITY":0.0002131,"INCLINATION":87.924,"RA_OF_ASC_NODE":239.1352,"ARG_OF_PERICENTER":103.0686,"MEAN_ANOMALY":257.0686,"EPHEMERIS_TYPE":0,"NORAD_CAT_ID":54643,"ELEMENT_SET_NO":999,"REV_AT_EPOCH":17477,"BSTAR":0.000045896,"MEAN_MOTION_DOT":3.2e-7,"MEAN_MOTION_DDOT":0},{"OBJECT_NAME":"ONEWEB-0539","OBJECT_ID":"2022-166C","EPOCH":"2026-07-11T15:57:58.121856","CLASSIFICATION_TYPE":"U","MEAN_MOTION":13.21822981,"ECCENTRICITY":0.0001935,"INCLINATION":87.9242,"RA_OF_ASC_NODE":239.1022,"ARG_OF_PERICENTER":94.9071,"MEAN_ANOMALY":265.2283,"EPHEMERIS_TYPE":0,"NORAD_CAT_ID":54644,"ELEMENT_SET_NO":999,"REV_AT_EPOCH":17477,"BSTAR":-0.00038082,"MEAN_MOTION_DOT":-0.00000144,"MEAN_MOTION_DDOT":0},{"OBJECT_NAME":"ONEWEB-0540","OBJECT_ID":"2022-166D","EPOCH":"2026-07-11T16:07:51.816000","CLASSIFICATION_TYPE":"U","MEAN_MOTION":13.21823923,"ECCENTRICITY":0.0002023,"INCLINATION":87.9233,"RA_OF_ASC_NODE":239.1293,"ARG_OF_PERICENTER":94.1472,"MEAN_ANOMALY":265.9893,"EPHEMERIS_TYPE":0,"NORAD_CAT_ID":54645,"ELEMENT_SET_NO":999,"REV_AT_EPOCH":17476,"BSTAR":-0.00018831,"MEAN_MOTION_DOT":-6.5e-7,"MEAN_MOTION_DDOT":0},{"OBJECT_NAME":"ONEWEB-0542","OBJECT_ID":"2022-166E","EPOCH":"2026-07-11T16:12:31.790016","CLASSIFICATION_TYPE":"U","MEAN_MOTION":13.21825876,"ECCENTRICITY":0.0001717,"INCLINATION":87.9242,"RA_OF_ASC_NODE":239.0985,"ARG_OF_PERICENTER":93.3685,"MEAN_ANOMALY":266.7645,"EPHEMERIS_TYPE":0,"NORAD_CAT_ID":54646,"ELEMENT_SET_NO":999,"REV_AT_EPOCH":17477,"BSTAR":0.00013316,"MEAN_MOTION_DOT":6.8e-7,"MEAN_MOTION_DDOT":0}]}
