[
  {
    "name": "ONEWEB-0520",
    "noradId": "54138",
    "line1": "1 54138U 22138AB  26192.84612123 -.00000064  00000+0 -19161-3 0  9996",
    "line2": "2 54138  87.9186 300.0591 0001930 104.0987 256.0360 13.19726292180072"
  },
  {
    "name": "ONEWEB-0521",
    "noradId": "54139",
    "line1": "1 54139U 22138AC  26192.80346005 -.00000011  00000+0 -59711-4 0  9994",
    "line2": "2 54139  87.9194 300.0546 0001867  95.1727 264.9618 13.19726386180015"
  },
  {
    "name": "ONEWEB-0522",
    "noradId": "54140",
    "line1": "1 54140U 22138AD  26192.78292279  .00001376  00000+0  34023-2 0  9996",
    "line2": "2 54140  87.9194 300.0613 0002022 106.2897 253.8458 13.19738819180055"
  },
  {
    "name": "ONEWEB-0523",
    "noradId": "54141",
    "line1": "1 54141U 22138AE  26192.72602993 -.00000024  00000+0 -91599-4 0  9993",
    "line2": "2 54141  87.9194 269.5511 0002398  80.4264 279.7140 13.20772283182545"
  },
  {
    "name": "ONEWEB-0524",
    "noradId": "54142",
    "line1": "1 54142U 22138AF  26192.71593361  .00000033  00000+0  49118-4 0  9999",
    "line2": "2 54142  87.9193 269.5500 0002942  92.9856 267.1614 13.20772717182542"
  },
  {
    "name": "ONEWEB-0525",
    "noradId": "54143",
    "line1": "1 54143U 22138AG  26192.80187622 -.00000059  00000+0 -18034-3 0  9991",
    "line2": "2 54143  87.9191 300.0642 0002188 111.3801 248.7565 13.19726048180077"
  },
  {
    "name": "ONEWEB-0526",
    "noradId": "54144",
    "line1": "1 54144U 22138AH  26192.83504926  .00000030  00000+0  43222-4 0  9990",
    "line2": "2 54144  87.9193 300.0587 0002119 104.1406 255.9962 13.19723946180056"
  },
  {
    "name": "ONEWEB-0529",
    "noradId": "54145",
    "line1": "1 54145U 22138AJ  26192.83822429 -.00000042  00000+0 -13764-3 0  9994",
    "line2": "2 54145  87.9180 300.0665 0001961 105.9444 254.1905 13.19725946180077"
  },
  {
    "name": "ONEWEB-0531",
    "noradId": "54146",
    "line1": "1 54146U 22138AK  26192.77821560  .00000156  00000+0  35106-3 0  9991",
    "line2": "2 54146  87.9186 269.5349 0002716  82.7090 277.4352 13.20773803182556"
  },
  {
    "name": "ONEWEB-0535",
    "noradId": "54147",
    "line1": "1 54147U 22138AL  26192.79556125  .00000052  00000+0  97100-4 0  9994",
    "line2": "2 54147  87.9194 300.0598 0002031  91.4118 268.7247 13.19726559180087"
  },
  {
    "name": "ONEWEB-0536",
    "noradId": "54148",
    "line1": "1 54148U 22138AM  26192.76474881  .00000050  00000+0  91007-4 0  9998",
    "line2": "2 54148  87.9174 269.5576 0002786  85.8308 274.3143 13.20772993182542"
  },
  {
    "name": "ONEWEB-0527",
    "noradId": "54642",
    "line1": "1 54642U 22166A   26192.62658485  .00000053  00000+0  96095-4 0  9992",
    "line2": "2 54642  87.9234 239.1335 0002123  97.3655 262.7720 13.21827066174762"
  },
  {
    "name": "ONEWEB-0528",
    "noradId": "54643",
    "line1": "1 54643U 22166B   26192.62742303  .00000032  00000+0  45896-4 0  9996",
    "line2": "2 54643  87.9240 239.1352 0002131 103.0686 257.0686 13.21826132174779"
  },
  {
    "name": "ONEWEB-0539",
    "noradId": "54644",
    "line1": "1 54644U 22166C   26192.66525604 -.00000144  00000+0 -38082-3 0  9998",
    "line2": "2 54644  87.9242 239.1022 0001935  94.9071 265.2283 13.21822981174775"
  },
  {
    "name": "ONEWEB-0540",
    "noradId": "54645",
    "line1": "1 54645U 22166D   26192.67212750 -.00000065  00000+0 -18831-3 0  9997",
    "line2": "2 54645  87.9233 239.1293 0002023  94.1472 265.9893 13.21823923174762"
  },
  {
    "name": "ONEWEB-0542",
    "noradId": "54646",
    "line1": "1 54646U 22166E   26192.67536794  .00000068  00000+0  13316-3 0  9999",
    "line2": "2 54646  87.9242 239.0985 0001717  93.3685 266.7645 13.21825876174770"
  }
]